NORAD_CAT_ID,OBJECT_NAME,OBJECT_TYPE,EPOCH,MEAN_MOTION,ECCENTRICITY,INCLINATION,RA_OF_ASC_NODE,ARG_OF_PERICENTER,MEAN_ANOMALY,BSTAR,MEAN_MOTION_DOT,MEAN_MOTION_DDOT,TLE_LINE0,TLE_LINE1,TLE_LINE2,SEMIMAJOR_AXIS,PERIOD,APOGEE,PERIGEE,DECAYED
53159.0,STARLINK-4111,PAYLOAD,2024-03-24 10:45:41,15.08868015,0.000218,53.2174,134.9658,74.4678,285.6555,0.00039402,5.993e-05,0.0,0 STARLINK-4111,1 53159U 22083AD  24084.44839732  .00005993  00000-0  39402-3 0  9993,2 53159  53.2174 134.9658 0002180  74.4678 285.6555 15.08868015 94012,6917.795,95.436,541.168,538.152,0.0
53159.0,STARLINK-4111,PAYLOAD,2024-03-25 10:36:29,15.08835088,0.0001442,53.2155,130.4999,86.46,273.6557,-4.971e-05,-1.079e-05,0.0,0 STARLINK-4111,1 53159U 22083AD  24085.44201340 -.00001079  00000-0 -49710-4 0  9999,2 53159  53.2155 130.4999 0001442  86.4600 273.6557 15.08835088 94167,6917.895,95.438,540.758,538.763,0.0
53159.0,STARLINK-4111,PAYLOAD,2024-03-25 20:08:49,15.08824988,0.0001428,53.2148,128.7158,95.6758,264.4397,-0.00017524,-3.075e-05,0.0,0 STARLINK-4111,1 53159U 22083AD  24085.83945998 -.00003075  00000-0 -17524-3 0  9991,2 53159  53.2148 128.7158 0001428  95.6758 264.4397 15.08824988 94220,6917.926,95.439,540.779,538.803,0.0
53159.0,STARLINK-4111,PAYLOAD,2024-03-26 10:27:18,15.08829247,0.0001599,53.2154,126.0422,98.1951,261.9222,-0.00019931,-3.458e-05,0.0,0 STARLINK-4111,1 53159U 22083AD  24086.43562844 -.00003458  00000-0 -19931-3 0  9992,2 53159  53.2154 126.0422 0001599  98.1951 261.9222 15.08829247 93685,6917.913,95.438,540.884,538.672,0.0
53159.0,STARLINK-4111,PAYLOAD,2024-03-26 19:59:37,15.08831301,0.000162,53.2158,124.2587,102.8534,257.2639,9.4468e-05,1.215e-05,0.0,0 STARLINK-4111,1 53159U 22083AD  24086.83307115  .00001215  00000-0  94468-4 0  9990,2 53159  53.2158 124.2587 0001620 102.8534 257.2639 15.08831301 93747,6917.907,95.438,540.893,538.651,0.0
53159.0,STARLINK-4111,PAYLOAD,2024-03-27 08:42:42,15.08841936,0.000152,53.2154,121.8786,100.821,259.2953,0.000418,6.371e-05,0.0,0 STARLINK-4111,1 53159U 22083AD  24087.36298961  .00006371  00000-0  41800-3 0  9996,2 53159  53.2154 121.8786 0001520 100.8210 259.2953 15.08841936 94450,6917.874,95.437,540.791,538.688,0.0
53159.0,STARLINK-4111,PAYLOAD,2024-03-28 05:22:43,15.0884291,0.0001495,53.2147,118.0124,100.9497,259.1663,0.00033903,5.112e-05,0.0,0 STARLINK-4111,1 53159U 22083AD  24088.22411028  .00005112  00000-0  33903-3 0  9990,2 53159  53.2147 118.0124 0001495 100.9497 259.1663 15.08842910 94589,6917.871,95.437,540.771,538.702,0.0
53159.0,STARLINK-4111,PAYLOAD,2024-03-28 08:33:29,15.08845501,0.0001395,53.2145,117.4195,95.5861,264.529,0.00036247,5.486e-05,0.0,0 STARLINK-4111,1 53159U 22083AD  24088.35658959  .00005486  00000-0  36247-3 0  9998,2 53159  53.2145 117.4195 0001395  95.5861 264.5290 15.08845501 93978,6917.864,95.437,540.694,538.764,0.0
53159.0,STARLINK-4111,PAYLOAD,2024-03-29 08:24:15,15.08854457,0.0001565,53.2157,112.9574,97.4011,262.7159,9.7835e-05,1.27e-05,0.0,0 STARLINK-4111,1 53159U 22083AD  24089.35017837  .00001270  00000-0  97835-4 0  9991,2 53159  53.2157 112.9574 0001565  97.4011 262.7159 15.08854457 94750,6917.836,95.437,540.784,538.619,0.0
53159.0,STARLINK-4111,PAYLOAD,2024-03-29 17:56:34,15.08851072,0.0001481,53.2155,111.1733,94.895,265.2212,2.3929e-05,9.3e-07,0.0,0 STARLINK-4111,1 53159U 22083AD  24089.74761755  .00000093  00000-0  23929-4 0  9994,2 53159  53.2155 111.1733 0001481  94.8950 265.2212 15.08851072 94181,6917.847,95.437,540.736,538.687,0.0
53159.0,STARLINK-4111,PAYLOAD,2024-03-30 05:04:16,15.08841545,0.0001548,53.2178,109.096,101.1801,258.9365,-1.6923e-05,-5.57e-06,0.0,0 STARLINK-4111,1 53159U 22083AD  24090.21130590 -.00000557  00000-0 -16923-4 0  9998,2 53159  53.2178 109.0960 0001548 101.1801 258.9365 15.08841545 94884,6917.876,95.437,540.812,538.67,0.0
53159.0,STARLINK-4111,PAYLOAD,2024-03-30 17:47:21,15.08841463,0.0001554,53.2178,106.717,99.2611,260.8557,-5.199e-05,-1.115e-05,0.0,0 STARLINK-4111,1 53159U 22083AD  24090.74122516 -.00001115  00000-0 -51990-4 0  9999,2 53159  53.2178 106.7170 0001554  99.2611 260.8557 15.08841463 94338,6917.876,95.437,540.816,538.666,0.0
53159.0,STARLINK-4111,PAYLOAD,2024-03-31 08:05:49,15.08842536,0.0001552,53.2176,104.0397,101.3755,258.7411,2.5276e-05,1.14e-06,0.0,0 STARLINK-4111,1 53159U 22083AD  24091.33738218  .00000114  00000-0  25276-4 0  9991,2 53159  53.2176 104.0397 0001552 101.3755 258.7411 15.08842536 95057,6917.873,95.437,540.811,538.664,0.0
53159.0,STARLINK-4111,PAYLOAD,2024-03-31 17:38:08,15.08839063,0.0001538,53.2181,102.2558,99.8251,260.2915,2.1216e-05,5e-07,0.0,0 STARLINK-4111,1 53159U 22083AD  24091.73482401  .00000050  00000-0  21216-4 0  9994,2 53159  53.2181 102.2558 0001538  99.8251 260.2915 15.08839063 94482,6917.883,95.438,540.812,538.684,0.0
53159.0,STARLINK-4111,PAYLOAD,2024-04-01 09:32:00,15.08835897,0.0001777,53.218,99.2804,98.8428,261.2766,-1.2266e-05,-4.83e-06,0.0,0 STARLINK-4111,1 53159U 22083AD  24092.39723046 -.00000483  00000-0 -12266-4 0  9997,2 53159  53.2180  99.2804 0001777  98.8428 261.2766 15.08835897 95218,6917.893,95.438,540.987,538.529,0.0
53159.0,STARLINK-4111,PAYLOAD,2024-04-01 17:28:56,15.08839828,0.0001497,53.2172,97.7939,91.6171,268.4993,7.2666e-05,8.69e-06,0.0,0 STARLINK-4111,1 53159U 22083AD  24092.72842614  .00000869  00000-0  72666-4 0  9993,2 53159  53.2172  97.7939 0001497  91.6171 268.4993 15.08839828 95260,6917.881,95.438,540.782,538.71,0.0
53159.0,STARLINK-4111,PAYLOAD,2024-04-02 09:22:46,15.0885282,0.0001484,53.2172,94.8196,88.3207,271.7955,0.00014792,2.068e-05,0.0,0 STARLINK-4111,1 53159U 22083AD  24093.39081442  .00002068  00000-0  14792-3 0  9999,2 53159  53.2172  94.8196 0001484  88.3207 271.7955 15.08852820 95365,6917.841,95.437,540.733,538.68,0.0
53159.0,STARLINK-4111,PAYLOAD,2024-04-02 17:19:42,15.08840895,0.0001714,53.2181,93.3328,80.0233,280.0952,5.773e-05,6.31e-06,0.0,0 STARLINK-4111,1 53159U 22083AD  24093.72202447  .00000631  00000-0  57730-4 0  9990,2 53159  53.2181  93.3328 0001714  80.0233 280.0952 15.08840895 95415,6917.878,95.437,540.928,538.557,0.0
53159.0,STARLINK-4111,PAYLOAD,2024-04-03 09:13:34,15.08838924,0.0001403,53.2172,90.3553,90.9745,269.1408,4.4235e-05,4.16e-06,0.0,0 STARLINK-4111,1 53159U 22083AD  24094.38442606  .00000416  00000-0  44235-4 0  9993,2 53159  53.2172  90.3553 0001403  90.9745 269.1408 15.08838924 94889,6917.884,95.438,540.719,538.778,0.0
53159.0,STARLINK-4111,PAYLOAD,2024-04-03 17:10:29,15.08839697,0.000145,53.2175,88.8692,89.4657,270.6502,6.6629e-05,7.73e-06,0.0,0 STARLINK-4111,1 53159U 22083AD  24094.71562481  .00000773  00000-0  66629-4 0  9991,2 53159  53.2175  88.8692 0001450  89.4657 270.6502 15.08839697 94931,6917.881,95.438,540.749,538.743,0.0
53159.0,STARLINK-4111,PAYLOAD,2024-04-04 05:53:34,15.08846493,0.0001321,53.217,86.4905,89.1653,270.949,2.2074e-05,6.3e-07,0.0,0 STARLINK-4111,1 53159U 22083AD  24095.24553951  .00000063  00000-0  22074-4 0  9990,2 53159  53.2170  86.4905 0001321  89.1653 270.9490 15.08846493 95647,6917.861,95.437,540.639,538.812,0.0
53159.0,STARLINK-4111,PAYLOAD,2024-04-04 09:04:20,15.08849706,0.0001462,53.2173,85.8954,91.7923,268.3237,-2.5093e-05,-6.87e-06,0.0,0 STARLINK-4111,1 53159U 22083AD  24095.37801856 -.00000687  00000-0 -25093-4 0  9992,2 53159  53.2173  85.8954 0001462  91.7923 268.3237 15.08849706 95035,6917.851,95.437,540.727,538.704,0.0
53159.0,STARLINK-4111,PAYLOAD,2024-04-05 05:44:21,15.08840352,0.0001428,53.2171,82.0296,89.5308,270.5848,7.1101e-05,8.44e-06,0.0,0 STARLINK-4111,1 53159U 22083AD  24096.23914075  .00000844  00000-0  71101-4 0  9990,2 53159  53.2171  82.0296 0001428  89.5308 270.5848 15.08840352 95799,6917.879,95.438,540.732,538.756,0.0
53159.0,STARLINK-4111,PAYLOAD,2024-04-05 08:55:08,15.08840914,0.0001453,53.2174,81.4354,89.6339,270.4819,5.8401e-05,6.42e-06,0.0,0 STARLINK-4111,1 53159U 22083AD  24096.37162078  .00000642  00000-0  58401-4 0  9997,2 53159  53.2174  81.4354 0001453  89.6339 270.4819 15.08840914 95187,6917.878,95.437,540.748,538.737,0.0
53159.0,STARLINK-4111,PAYLOAD,2024-04-06 08:45:55,15.08838135,0.0001378,53.2175,76.9763,87.0914,273.0236,-8.0895e-06,-4.17e-06,0.0,0 STARLINK-4111,1 53159U 22083AD  24097.36522571 -.00000417  00000-0 -80895-5 0  9990,2 53159  53.2175  76.9763 0001378  87.0914 273.0236 15.08838135 95968,6917.886,95.438,540.704,538.798,0.0
53159.0,STARLINK-4111,PAYLOAD,2024-04-06 23:04:24,15.08832543,0.0001443,53.2182,74.3008,89.6654,270.4504,-3.0183e-05,-7.68e-06,0.0,0 STARLINK-4111,1 53159U 22083AD  24097.96139201 -.00000768  00000-0 -30183-4 0  9993,2 53159  53.2182  74.3008 0001443  89.6654 270.4504 15.08832543 95429,6917.903,95.438,540.766,538.77,0.0
53159.0,STARLINK-4111,PAYLOAD,2024-04-07 08:36:43,15.08834619,0.0001444,53.2182,72.5166,89.3672,270.7485,-1.078e-05,-4.59e-06,0.0,0 STARLINK-4111,1 53159U 22083AD  24098.35883180 -.00000459  00000-0 -10780-4 0  9997,2 53159  53.2182  72.5166 0001444  89.3672 270.7485 15.08834619 95485,6917.897,95.438,540.761,538.763,0.0
53159.0,STARLINK-4111,PAYLOAD,2024-04-07 14:58:15,15.08836818,0.0001453,53.2185,71.3275,88.2944,271.8214,-3.8775e-05,-9.05e-06,0.0,0 STARLINK-4111,1 53159U 22083AD  24098.62379213 -.00000905  00000-0 -38775-4 0  9994,2 53159  53.2185  71.3275 0001453  88.2944 271.8214 15.08836818 95526,6917.89,95.438,540.76,538.75,0.0
53159.0,STARLINK-4111,PAYLOAD,2024-04-08 03:41:20,15.08838428,0.0001368,53.218,68.9491,92.7573,267.3575,6.7727e-05,7.9e-06,0.0,0 STARLINK-4111,1 53159U 22083AD  24099.15370968  .00000790  00000-0  67727-4 0  9990,2 53159  53.2180  68.9491 0001368  92.7573 267.3575 15.08838428 96234,6917.885,95.438,540.697,538.804,0.0
53159.0,STARLINK-4111,PAYLOAD,2024-04-08 14:49:02,15.08840676,0.0001394,53.2183,66.8673,89.7341,270.3811,8.0328e-05,9.91e-06,0.0,0 STARLINK-4111,1 53159U 22083AD  24099.61738840  .00000991  00000-0  80328-4 0  9993,2 53159  53.2183  66.8673 0001394  89.7341 270.3811 15.08840676 95676,6917.878,95.438,540.708,538.779,0.0
